{"type":"FeatureCollection","features":[{"type":"Feature","properties":{"zip":"67144"},"geometry":{"type":"Polygon","coordinates":[[[-97.04224,37.82516],[-97.04233,37.8829],[-97.04079,37.88346],[-97.04075,37.88239],[-97.03861,37.88235],[-97.03894,37.88311],[-97.03776,37.88397],[-97.03898,37.88418],[-97.0383,37.88508],[-97.03605,37.88452],[-97.03368,37.88592],[-97.03305,37.88467],[-97.02997,37.88541],[-97.03024,37.88652],[-97.02929,37.88706],[-97.02936,37.88579],[-97.02751,37.88642],[-97.02584,37.8848],[-97.02319,37.88511],[-97.01887,37.88816],[-97.01828,37.88983],[-97.02034,37.89104],[-97.01342,37.89422],[-97.01288,37.89609],[-97.01047,37.89855],[-97.00903,37.89822],[-97.00873,37.8991],[-97.01004,37.89953],[-97.00777,37.89982],[-97.00827,37.90103],[-97.00738,37.90143],[-97.00575,37.89919],[-97.00549,37.88344],[-96.9749,37.88365],[-96.97152,37.88288],[-96.97042,37.88407],[-96.97099,37.88518],[-96.97009,37.88672],[-96.96883,37.88625],[-96.96881,37.88343],[-96.9506,37.88309],[-96.95048,37.85247],[-96.95306,37.85224],[-96.95453,37.85009],[-96.95355,37.84874],[-96.95481,37.84704],[-96.9571,37.8469],[-96.95679,37.84562],[-96.95983,37.84632],[-96.96135,37.84371],[-96.96323,37.84357],[-96.96326,37.84133],[-96.96887,37.83965],[-96.97896,37.83966],[-96.9797,37.83855],[-96.98139,37.83833],[-96.98064,37.83729],[-96.98371,37.83554],[-96.98261,37.83382],[-96.98544,37.83112],[-96.98691,37.83126],[-96.98729,37.82491],[-96.93555,37.82469],[-96.93534,37.81606],[-96.95836,37.81085],[-96.9712,37.80653],[-96.97117,37.80543],[-96.98106,37.80447],[-96.98921,37.79788],[-96.98917,37.79152],[-96.98631,37.79142],[-96.98218,37.78965],[-96.9815,37.7859],[-96.9801,37.78495],[-96.97994,37.78123],[-96.97082,37.7811],[-96.97116,37.75236],[-96.99859,37.7523],[-96.99881,37.72305],[-97.01714,37.72314],[-97.01648,37.72533],[-97.01715,37.7261],[-97.01691,37.7548],[-97.05315,37.74326],[-97.05475,37.75237],[-97.06199,37.75243],[-97.06201,37.76696],[-97.0438,37.76681],[-97.04387,37.78138],[-97.06204,37.78151],[-97.06216,37.79408],[-97.04398,37.79339],[-97.04395,37.79599],[-97.04401,37.80328],[-97.06235,37.80334],[-97.06246,37.8252],[-97.04224,37.82516]]]}},{"type":"Feature","properties":{"zip":"67056"},"geometry":{"type":"MultiPolygon","coordinates":[[[[-97.42706,38.10111],[-97.42705,38.11565],[-97.40883,38.11562],[-97.4088,38.10109],[-97.42706,38.10111]]],[[[-97.42706,38.10111],[-97.42704,38.08658],[-97.46385,38.08672],[-97.46406,38.05756],[-97.4719,38.05756],[-97.466,38.05333],[-97.464,38.05078],[-97.46395,38.02847],[-97.46045,38.02846],[-97.46096,38.02349],[-97.45837,38.01413],[-97.44553,38.01391],[-97.44551,38.01239],[-97.44422,38.01261],[-97.44316,38.01145],[-97.44376,38.00855],[-97.44233,38.00337],[-97.44262,37.99939],[-97.45484,37.99936],[-97.45484,37.99195],[-97.46385,37.99194],[-97.46389,37.98512],[-97.482,37.98491],[-97.48217,37.95582],[-97.46814,37.95596],[-97.46799,37.95332],[-97.46456,37.95107],[-97.46056,37.95224],[-97.45883,37.95115],[-97.45837,37.95044],[-97.45938,37.94877],[-97.46394,37.94872],[-97.46385,37.9415],[-97.52727,37.9414],[-97.52583,37.93981],[-97.53718,37.93359],[-97.53716,37.94136],[-97.55547,37.94149],[-97.55543,37.95534],[-97.55664,37.95615],[-97.55649,37.95423],[-97.55745,37.95401],[-97.55843,37.95528],[-97.56131,37.95123],[-97.56163,37.94883],[-97.56377,37.94687],[-97.56493,37.94843],[-97.56599,37.94725],[-97.56728,37.94859],[-97.56945,37.94793],[-97.56975,37.95069],[-97.57122,37.95028],[-97.57054,37.94872],[-97.57417,37.94789],[-97.57409,37.95602],[-97.61052,37.95599],[-97.61047,37.96273],[-97.61677,37.96366],[-97.61583,37.96557],[-97.61787,37.96607],[-97.62037,37.96446],[-97.62388,37.96384],[-97.62646,37.96479],[-97.62749,37.96643],[-97.627,37.96754],[-97.62877,37.96788],[-97.62872,37.98513],[-97.61036,37.98521],[-97.61047,38.04329],[-97.57385,38.04332],[-97.57382,38.05792],[-97.55533,38.05771],[-97.5554,38.08684],[-97.5533,38.0869],[-97.55412,38.08842],[-97.55297,38.08839],[-97.55269,38.09052],[-97.55132,38.09017],[-97.55014,38.09262],[-97.54899,38.09199],[-97.54905,38.09311],[-97.54712,38.09292],[-97.54772,38.094],[-97.54512,38.09464],[-97.54415,38.09716],[-97.54205,38.09552],[-97.54084,38.09736],[-97.53946,38.09758],[-97.54103,38.10001],[-97.53927,38.09989],[-97.53744,38.10111],[-97.53815,38.1039],[-97.53577,38.10404],[-97.5358,38.10521],[-97.53455,38.10476],[-97.53276,38.1063],[-97.53629,38.10653],[-97.53456,38.10675],[-97.53553,38.10737],[-97.53316,38.10933],[-97.53524,38.11006],[-97.53527,38.11146],[-97.53406,38.11222],[-97.53451,38.11443],[-97.53086,38.11496],[-97.53325,38.11591],[-97.50042,38.1159],[-97.50038,38.10136],[-97.48139,38.10123],[-97.46386,38.10127],[-97.4638,38.11582],[-97.44554,38.11574],[-97.44553,38.10116],[-97.42706,38.10111]]]]}},{"type":"Feature","properties":{"zip":"67052"},"geometry":{"type":"Polygon","coordinates":[[[-97.62559,37.72137],[-97.51708,37.72192],[-97.51714,37.70768],[-97.51601,37.70745],[-97.51599,37.70661],[-97.51708,37.70479],[-97.5167,37.66423],[-97.512,37.6641],[-97.51532,37.66396],[-97.51531,37.66261],[-97.51668,37.66235],[-97.51689,37.62141],[-97.53533,37.62132],[-97.53421,37.59167],[-97.55246,37.5916],[-97.55246,37.59892],[-97.57049,37.59882],[-97.57055,37.60605],[-97.58843,37.60607],[-97.5884,37.59153],[-97.63499,37.59079],[-97.63609,37.59285],[-97.63652,37.59443],[-97.63479,37.59658],[-97.63531,37.60061],[-97.64055,37.60549],[-97.63879,37.60791],[-97.63943,37.61146],[-97.64038,37.61254],[-97.64314,37.61243],[-97.6432,37.63419],[-97.62501,37.63434],[-97.62577,37.64908],[-97.62559,37.72137]]]}},{"type":"Feature","properties":{"zip":"67037"},"geometry":{"type":"MultiPolygon","coordinates":[[[[-97.28829,37.52063],[-97.28817,37.54261],[-97.2974,37.54258],[-97.29786,37.54955],[-97.30641,37.54989],[-97.30659,37.562],[-97.31069,37.5644],[-97.30358,37.56438],[-97.29268,37.55782],[-97.28743,37.55785],[-97.28958,37.56319],[-97.28962,37.56446],[-97.28804,37.56445],[-97.2872,37.56687],[-97.28813,37.5693],[-97.2939,37.57104],[-97.30365,37.57697],[-97.30441,37.57906],[-97.30222,37.58514],[-97.29868,37.58739],[-97.29413,37.58773],[-97.29407,37.5914],[-97.30115,37.5909],[-97.30118,37.59309],[-97.29949,37.59311],[-97.29852,37.59167],[-97.28562,37.59163],[-97.28635,37.59347],[-97.28523,37.59152],[-97.27989,37.59155],[-97.28038,37.6035],[-97.27945,37.60474],[-97.27747,37.60353],[-97.2696,37.60288],[-97.26854,37.60554],[-97.26677,37.60583],[-97.26544,37.61001],[-97.25866,37.6107],[-97.25831,37.61515],[-97.25559,37.61637],[-97.25472,37.6192],[-97.25289,37.62081],[-97.24929,37.62099],[-97.24895,37.62224],[-97.24487,37.62474],[-97.24535,37.63551],[-97.24444,37.63552],[-97.24435,37.62094],[-97.21793,37.621],[-97.21793,37.62562],[-97.20796,37.62249],[-97.20796,37.62109],[-97.18368,37.62123],[-97.18383,37.62604],[-97.17748,37.62493],[-97.17503,37.62592],[-97.17139,37.62974],[-97.17136,37.62127],[-97.1597,37.62123],[-97.1603,37.62342],[-97.15945,37.62436],[-97.15651,37.62122],[-97.15304,37.62121],[-97.15311,37.50472],[-97.19811,37.50453],[-97.19315,37.50493],[-97.19097,37.50756],[-97.19201,37.50983],[-97.19146,37.51175],[-97.19411,37.51308],[-97.19429,37.51775],[-97.19259,37.51745],[-97.19292,37.51903],[-97.20338,37.51897],[-97.208,37.51067],[-97.20811,37.50446],[-97.2262,37.50461],[-97.22599,37.51918],[-97.24431,37.51899],[-97.24431,37.508],[-97.2588,37.5142],[-97.26506,37.51393],[-97.26259,37.51142],[-97.26766,37.51043],[-97.26832,37.5095],[-97.27061,37.51018],[-97.27496,37.50909],[-97.278,37.50965],[-97.28026,37.51244],[-97.27684,37.52051],[-97.28829,37.52063]]],[[[-97.28829,37.52063],[-97.28841,37.50613],[-97.28969,37.50613],[-97.28992,37.52067],[-97.28829,37.52063]]]]}},{"type":"Feature","properties":{"zip":"67209"},"geometry":{"type":"Polygon","coordinates":[[[-97.48085,37.65015],[-97.48067,37.68401],[-97.47994,37.68315],[-97.47435,37.68399],[-97.46905,37.68175],[-97.46612,37.68324],[-97.46255,37.68234],[-97.46266,37.68633],[-97.46176,37.68639],[-97.45867,37.68313],[-97.45673,37.68285],[-97.45624,37.68157],[-97.45886,37.6803],[-97.45772,37.67935],[-97.45265,37.67944],[-97.45208,37.68306],[-97.43459,37.68374],[-97.43414,37.68247],[-97.43257,37.68373],[-97.43113,37.68337],[-97.43084,37.68035],[-97.4292,37.67983],[-97.42876,37.683],[-97.42602,37.68355],[-97.42605,37.68518],[-97.42344,37.68514],[-97.42241,37.68359],[-97.42014,37.68364],[-97.42036,37.6823],[-97.42254,37.68113],[-97.42261,37.67993],[-97.40493,37.68011],[-97.408,37.68371],[-97.39058,37.68389],[-97.39057,37.68028],[-97.39396,37.68022],[-97.39398,37.67841],[-97.39282,37.67841],[-97.39282,37.67661],[-97.39166,37.67662],[-97.39164,37.67542],[-97.38936,37.67542],[-97.38928,37.67247],[-97.39674,37.67193],[-97.3967,37.66932],[-97.38928,37.66942],[-97.38923,37.66393],[-97.39041,37.66389],[-97.39042,37.66214],[-97.38923,37.66213],[-97.38917,37.65461],[-97.39832,37.65464],[-97.3983,37.65156],[-97.39075,37.65126],[-97.38915,37.65247],[-97.38913,37.65164],[-97.40352,37.64428],[-97.40387,37.65153],[-97.40732,37.65131],[-97.40732,37.64751],[-97.41665,37.64755],[-97.41665,37.64662],[-97.41857,37.64665],[-97.4186,37.63888],[-97.41749,37.6389],[-97.41751,37.63771],[-97.42576,37.6357],[-97.43327,37.63665],[-97.43335,37.63395],[-97.45221,37.62959],[-97.45258,37.63523],[-97.44937,37.63667],[-97.44501,37.64286],[-97.44379,37.65063],[-97.48085,37.65015]],[[-97.47959,37.65556],[-97.48063,37.65421],[-97.47962,37.6542],[-97.47959,37.65556]],[[-97.47962,37.65727],[-97.48057,37.65652],[-97.47964,37.65651],[-97.47962,37.65727]]]}},{"type":"Feature","properties":{"zip":"67110"},"geometry":{"type":"Polygon","coordinates":[[[-97.15084,37.42751],[-97.15059,37.41968],[-97.15206,37.41972],[-97.15185,37.41792],[-97.15279,37.41746],[-97.15196,37.41623],[-97.15226,37.41533],[-97.15327,37.41543],[-97.15273,37.41394],[-97.15403,37.41399],[-97.15358,37.41252],[-97.19953,37.41297],[-97.20292,37.41521],[-97.20687,37.41421],[-97.21018,37.41194],[-97.21288,37.41178],[-97.21652,37.4138],[-97.2188,37.41806],[-97.22313,37.42147],[-97.22327,37.42364],[-97.22203,37.42628],[-97.22294,37.42833],[-97.22554,37.42867],[-97.22907,37.42747],[-97.2343,37.42427],[-97.23704,37.42493],[-97.23941,37.42737],[-97.23936,37.42593],[-97.23998,37.42642],[-97.24089,37.4302],[-97.2438,37.43512],[-97.24139,37.44287],[-97.26791,37.44291],[-97.26952,37.44356],[-97.27062,37.44661],[-97.27671,37.45063],[-97.27663,37.44291],[-97.31307,37.44173],[-97.31439,37.47647],[-97.32298,37.47662],[-97.32381,37.50629],[-97.30625,37.50593],[-97.30636,37.52065],[-97.2974,37.52066],[-97.29748,37.50601],[-97.29594,37.50606],[-97.29569,37.51081],[-97.28976,37.51085],[-97.28969,37.50613],[-97.28841,37.50613],[-97.28829,37.52063],[-97.27684,37.52051],[-97.28026,37.51244],[-97.278,37.50965],[-97.27496,37.50909],[-97.27061,37.51018],[-97.26832,37.5095],[-97.26766,37.51043],[-97.26259,37.51142],[-97.26506,37.51393],[-97.2588,37.5142],[-97.24431,37.508],[-97.24431,37.51899],[-97.22599,37.51918],[-97.2262,37.50461],[-97.20811,37.50446],[-97.208,37.51067],[-97.20338,37.51897],[-97.19292,37.51903],[-97.19259,37.51745],[-97.19429,37.51775],[-97.19411,37.51308],[-97.19146,37.51175],[-97.19201,37.50983],[-97.19097,37.50756],[-97.19315,37.50493],[-97.19811,37.50453],[-97.15311,37.50472],[-97.15333,37.47554],[-97.13518,37.47551],[-97.13496,37.46917],[-97.13115,37.46833],[-97.12881,37.46586],[-97.13217,37.46525],[-97.13224,37.46428],[-97.13471,37.46268],[-97.15236,37.46303],[-97.15175,37.44856],[-97.134,37.44825],[-97.13343,37.44092],[-97.13965,37.44095],[-97.14063,37.43928],[-97.13974,37.43501],[-97.14704,37.43333],[-97.14974,37.42726],[-97.15084,37.42751]],[[-97.30501,37.47631],[-97.29624,37.47615],[-97.29752,37.49152],[-97.29802,37.48457],[-97.30513,37.48457],[-97.30501,37.47631]]]}},{"type":"Feature","properties":{"zip":"67230"},"geometry":{"type":"Polygon","coordinates":[[[-97.15294,37.72329],[-97.15296,37.65031],[-97.18952,37.65014],[-97.18966,37.7231],[-97.15294,37.72329]]]}},{"type":"Feature","properties":{"zip":"67217"},"geometry":{"type":"Polygon","coordinates":[[[-97.3686,37.57879],[-97.38724,37.5977],[-97.39589,37.60843],[-97.39309,37.61245],[-97.39276,37.61824],[-97.39109,37.61685],[-97.38901,37.61684],[-97.3891,37.62253],[-97.3928,37.62254],[-97.3928,37.63349],[-97.39886,37.64655],[-97.38913,37.65164],[-97.37774,37.65132],[-97.37773,37.6505],[-97.37087,37.65054],[-97.37088,37.65138],[-97.34672,37.65161],[-97.33552,37.6448],[-97.33551,37.64272],[-97.33771,37.64269],[-97.33759,37.6371],[-97.33438,37.63709],[-97.33429,37.63022],[-97.33858,37.61394],[-97.33822,37.61169],[-97.3361,37.6116],[-97.33404,37.61008],[-97.33396,37.60793],[-97.33858,37.60804],[-97.33859,37.60461],[-97.34057,37.60638],[-97.34198,37.60093],[-97.33409,37.60091],[-97.33409,37.59354],[-97.33575,37.59353],[-97.33546,37.59262],[-97.33409,37.59248],[-97.33405,37.58804],[-97.33594,37.58805],[-97.33516,37.58612],[-97.33404,37.58614],[-97.334,37.57896],[-97.33588,37.57896],[-97.33588,37.57626],[-97.3373,37.57624],[-97.33732,37.57546],[-97.33402,37.57582],[-97.33404,37.57349],[-97.35954,37.57393],[-97.36405,37.57539],[-97.3686,37.57879]]]}},{"type":"Feature","properties":{"zip":"67214"},"geometry":{"type":"Polygon","coordinates":[[[-97.33864,37.70819],[-97.33801,37.71896],[-97.33682,37.71896],[-97.33682,37.72077],[-97.33765,37.72077],[-97.33704,37.72439],[-97.33586,37.7244],[-97.33588,37.72987],[-97.33559,37.72868],[-97.32715,37.7293],[-97.32645,37.72735],[-97.32453,37.72994],[-97.32202,37.72981],[-97.32202,37.72831],[-97.31863,37.72798],[-97.31967,37.72267],[-97.30816,37.72271],[-97.30817,37.72371],[-97.30545,37.72407],[-97.30544,37.72273],[-97.30136,37.72275],[-97.30135,37.72457],[-97.30021,37.72458],[-97.3002,37.72276],[-97.29369,37.72281],[-97.2927,37.72131],[-97.29601,37.72028],[-97.29905,37.72106],[-97.29833,37.71191],[-97.29904,37.71191],[-97.29904,37.71008],[-97.29779,37.7101],[-97.29777,37.70827],[-97.29905,37.70827],[-97.29898,37.69006],[-97.29784,37.69007],[-97.2978,37.68825],[-97.29896,37.68824],[-97.29896,37.6863],[-97.32525,37.68607],[-97.32528,37.68798],[-97.32639,37.68798],[-97.32532,37.69167],[-97.32644,37.69167],[-97.32647,37.69351],[-97.32783,37.6935],[-97.32763,37.69621],[-97.32968,37.69544],[-97.33019,37.69421],[-97.33024,37.69757],[-97.33042,37.69349],[-97.33167,37.69348],[-97.33167,37.69484],[-97.33297,37.69483],[-97.33298,37.69347],[-97.33689,37.69346],[-97.33688,37.69889],[-97.33816,37.69888],[-97.33752,37.70443],[-97.33864,37.70819]]]}},{"type":"Feature","properties":{"zip":"67203"},"geometry":{"type":"Polygon","coordinates":[[[-97.33801,37.71896],[-97.33864,37.70819],[-97.33752,37.70443],[-97.33816,37.69888],[-97.33688,37.69889],[-97.33689,37.69346],[-97.34061,37.69347],[-97.34127,37.69481],[-97.34203,37.69158],[-97.34339,37.69141],[-97.3432,37.6898],[-97.3452,37.69153],[-97.35008,37.69334],[-97.35167,37.69335],[-97.34913,37.69082],[-97.3531,37.69125],[-97.34563,37.68917],[-97.34391,37.68541],[-97.34735,37.68399],[-97.38938,37.68391],[-97.38938,37.68754],[-97.39168,37.68752],[-97.39168,37.68933],[-97.3894,37.68935],[-97.38959,37.69854],[-97.3909,37.69855],[-97.39098,37.70158],[-97.38967,37.70157],[-97.38967,37.70465],[-97.39412,37.70892],[-97.39158,37.70886],[-97.39168,37.71106],[-97.38968,37.71102],[-97.38976,37.72024],[-97.39149,37.7204],[-97.38649,37.72566],[-97.3835,37.72323],[-97.35611,37.72259],[-97.35611,37.72421],[-97.35277,37.72345],[-97.35391,37.72201],[-97.35207,37.72302],[-97.3493,37.72177],[-97.34934,37.72257],[-97.33749,37.72259],[-97.33682,37.71896],[-97.33801,37.71896]]]}},{"type":"Feature","properties":{"zip":"67133"},"geometry":{"type":"Polygon","coordinates":[[[-97.15311,37.50472],[-97.15305,37.63577],[-97.13611,37.63603],[-97.08038,37.636],[-97.08028,37.62486],[-97.07526,37.62474],[-97.07526,37.6214],[-97.08027,37.62128],[-97.0804,37.59906],[-97.06208,37.60446],[-97.06211,37.59226],[-97.04376,37.59224],[-97.04377,37.6068],[-97.02657,37.60685],[-97.02652,37.56323],[-97.03557,37.56408],[-97.04372,37.5631],[-97.04377,37.54858],[-97.0804,37.54841],[-97.08032,37.53983],[-97.08124,37.53883],[-97.08033,37.53796],[-97.08038,37.53243],[-97.08331,37.52845],[-97.09883,37.51945],[-97.13542,37.51933],[-97.13533,37.50472],[-97.15311,37.50472]],[[-97.13546,37.63464],[-97.13221,37.63474],[-97.13219,37.63593],[-97.13546,37.63594],[-97.13546,37.63464]]]}},{"type":"Feature","properties":{"zip":"67114"},"geometry":{"type":"Polygon","coordinates":[[[-97.31687,38.14439],[-97.29819,38.14438],[-97.29887,38.11539],[-97.28004,38.11538],[-97.26484,38.11685],[-97.26495,38.10924],[-97.26008,38.11331],[-97.25537,38.11333],[-97.25545,38.11584],[-97.25236,38.11559],[-97.25233,38.11684],[-97.24624,38.11677],[-97.2467,38.09495],[-97.24547,38.08675],[-97.2271,38.08676],[-97.22822,38.10217],[-97.19138,38.10221],[-97.19038,38.0869],[-97.15291,38.0877],[-97.03107,38.0864],[-97.03149,38.08534],[-97.02803,38.08436],[-97.02978,38.08212],[-97.02727,38.08001],[-97.0305,38.07736],[-97.02805,38.07293],[-97.02563,38.07307],[-97.02608,38.07171],[-97.02776,38.0712],[-97.02541,38.06985],[-97.02697,38.06805],[-97.02475,38.06736],[-97.02552,38.06568],[-97.02406,38.06504],[-97.02487,38.06376],[-97.02345,38.06359],[-97.02324,38.05851],[-97.02191,38.05863],[-97.02223,38.05721],[-97.02139,38.05674],[-97.0225,38.05622],[-97.0211,38.05485],[-97.01853,38.05479],[-97.01994,38.05379],[-97.01841,38.05339],[-97.01887,38.05254],[-97.01744,38.05266],[-97.01886,38.05184],[-97.0182,38.05114],[-97.01891,38.04996],[-97.01705,38.04994],[-97.01713,38.04833],[-97.01551,38.04763],[-97.01636,38.04651],[-97.01475,38.04616],[-97.01859,38.04461],[-97.01755,38.04386],[-97.01823,38.04229],[-97.01674,38.04156],[-97.01805,38.04117],[-97.01716,38.04025],[-97.01836,38.03948],[-97.01754,38.03725],[-97.0188,38.03671],[-97.01885,38.03528],[-97.01575,38.03526],[-97.01765,38.03431],[-97.01678,38.03321],[-97.0174,38.03242],[-97.01644,38.03221],[-97.01787,38.03145],[-97.01601,38.03127],[-97.01627,38.02991],[-97.01491,38.03005],[-97.01509,38.02875],[-97.01376,38.02843],[-97.02369,38.02843],[-97.02376,38.01395],[-97.03744,38.01384],[-97.0536,38.01403],[-97.05344,38.0154],[-97.05707,38.01764],[-97.05657,38.01869],[-97.05444,38.0182],[-97.0539,38.01893],[-97.055,38.02026],[-97.0573,38.02034],[-97.05714,38.02242],[-97.05953,38.02383],[-97.06213,38.02278],[-97.06246,38.02372],[-97.06387,38.0238],[-97.06566,38.02692],[-97.06899,38.02694],[-97.0701,38.02853],[-97.11595,38.02916],[-97.11587,38.01463],[-97.12531,38.0147],[-97.12534,38.02928],[-97.13416,38.02931],[-97.13432,38.04385],[-97.1709,38.04349],[-97.17008,38.04279],[-97.1719,38.04115],[-97.17195,38.02895],[-97.19725,38.02898],[-97.19541,38.02199],[-97.19741,38.01888],[-97.19666,38.01625],[-97.19774,38.01654],[-97.20042,38.01448],[-97.20859,38.01446],[-97.20859,37.99997],[-97.21999,37.99994],[-97.22254,38.00231],[-97.22554,38.00159],[-97.22684,38.00287],[-97.22637,37.95678],[-97.22441,37.9534],[-97.22573,37.94812],[-97.21974,37.94548],[-97.22059,37.93619],[-97.21905,37.93385],[-97.22605,37.93383],[-97.22605,37.9269],[-97.24435,37.92691],[-97.24433,37.93369],[-97.26324,37.93364],[-97.26322,37.92688],[-97.26642,37.92686],[-97.28148,37.92688],[-97.28152,37.93366],[-97.30514,37.93377],[-97.31807,37.92694],[-97.31817,37.94125],[-97.32821,37.94121],[-97.32816,37.94246],[-97.33099,37.94344],[-97.33557,37.94245],[-97.33633,37.93744],[-97.33994,37.93756],[-97.34178,37.9358],[-97.34423,37.93557],[-97.34476,37.9334],[-97.35471,37.93393],[-97.35484,37.95565],[-97.37199,37.95578],[-97.372,37.9629],[-97.35488,37.963],[-97.35494,37.97016],[-97.37197,37.97029],[-97.37196,37.98482],[-97.3763,37.98483],[-97.37827,37.98079],[-97.38662,37.97042],[-97.39928,37.97049],[-97.39937,37.98136],[-97.41759,37.98127],[-97.41767,37.98511],[-97.42712,37.98512],[-97.427,37.99941],[-97.44262,37.99939],[-97.44233,38.00337],[-97.44376,38.00855],[-97.44316,38.01145],[-97.44422,38.01261],[-97.44551,38.01239],[-97.44553,38.01391],[-97.45827,38.01394],[-97.46096,38.02349],[-97.46045,38.02846],[-97.46395,38.02847],[-97.464,38.05078],[-97.466,38.05333],[-97.4719,38.05756],[-97.46406,38.05756],[-97.46385,38.08672],[-97.42704,38.08658],[-97.42706,38.10111],[-97.4088,38.10109],[-97.40884,38.13014],[-97.40099,38.13016],[-97.4087,38.13818],[-97.40727,38.13732],[-97.40375,38.13727],[-97.40373,38.13864],[-97.40009,38.13867],[-97.40009,38.13786],[-97.39028,38.13786],[-97.39029,38.13698],[-97.37181,38.13698],[-97.37174,38.19199],[-97.38101,38.192],[-97.38094,38.21006],[-97.39011,38.21007],[-97.39017,38.24642],[-97.37166,38.24631],[-97.37163,38.26083],[-97.35311,38.26084],[-97.35317,38.27534],[-97.33472,38.27533],[-97.33489,38.26152],[-97.32686,38.26082],[-97.32665,38.26183],[-97.32629,38.26082],[-97.31765,38.26084],[-97.31744,38.26197],[-97.31637,38.26194],[-97.31637,38.27528],[-97.298,38.27531],[-97.29794,38.26081],[-97.27955,38.26083],[-97.28067,38.21827],[-97.26234,38.21838],[-97.26194,38.23288],[-97.24357,38.23286],[-97.24423,38.20385],[-97.26275,38.20388],[-97.26308,38.18939],[-97.29983,38.18894],[-97.30008,38.1814],[-97.29481,38.1814],[-97.29961,38.17617],[-97.29944,38.17466],[-97.30142,38.17388],[-97.30102,38.17205],[-97.30303,38.16893],[-97.30876,38.16457],[-97.30934,38.15982],[-97.31101,38.15885],[-97.31141,38.15669],[-97.31325,38.15505],[-97.31316,38.15146],[-97.31678,38.14774],[-97.31687,38.14439]],[[-97.13448,38.05832],[-97.13439,38.04977],[-97.12916,38.04977],[-97.12915,38.05103],[-97.12872,38.05029],[-97.12556,38.05023],[-97.12525,38.05815],[-97.13448,38.05832]],[[-97.33664,38.2475],[-97.33663,38.24862],[-97.33865,38.24865],[-97.33864,38.24979],[-97.35072,38.25001],[-97.35099,38.24921],[-97.35325,38.24917],[-97.35346,38.24189],[-97.34881,38.24282],[-97.34887,38.2445],[-97.33943,38.24459],[-97.33951,38.24668],[-97.33664,38.2475]],[[-97.35749,38.07473],[-97.34522,38.0639],[-97.34522,38.06498],[-97.34201,38.06212],[-97.33679,38.06626],[-97.33682,38.07182],[-97.33959,38.07183],[-97.33959,38.07503],[-97.34096,38.07522],[-97.34172,38.07655],[-97.34523,38.07662],[-97.34606,38.08445],[-97.35007,38.08615],[-97.3552,38.0864],[-97.35516,38.07888],[-97.35664,38.07881],[-97.35749,38.07473]]]}},{"type":"Feature","properties":{"zip":"67213"},"geometry":{"type":"Polygon","coordinates":[[[-97.34619,37.65159],[-97.37088,37.65138],[-97.37087,37.65054],[-97.37773,37.6505],[-97.37774,37.65132],[-97.38913,37.65106],[-97.38915,37.65247],[-97.39075,37.65126],[-97.39817,37.65124],[-97.39832,37.65464],[-97.38917,37.65461],[-97.38923,37.66213],[-97.39042,37.66214],[-97.39041,37.66389],[-97.38923,37.66393],[-97.38928,37.66942],[-97.3967,37.66932],[-97.39674,37.67193],[-97.38928,37.67247],[-97.38936,37.67542],[-97.39164,37.67542],[-97.39166,37.67662],[-97.39282,37.67661],[-97.39396,37.68022],[-97.39057,37.68028],[-97.39058,37.68389],[-97.34735,37.68399],[-97.34371,37.68545],[-97.34271,37.6789],[-97.33813,37.67909],[-97.3381,37.67603],[-97.33679,37.67605],[-97.33679,37.67458],[-97.33811,37.67457],[-97.3381,37.66794],[-97.33731,37.66764],[-97.33742,37.66431],[-97.33811,37.66431],[-97.33809,37.65517],[-97.33678,37.65519],[-97.33678,37.65338],[-97.33741,37.65338],[-97.33745,37.64971],[-97.34131,37.64971],[-97.34619,37.65159]]]}},{"type":"Feature","properties":{"zip":"67206"},"geometry":{"type":"MultiPolygon","coordinates":[[[[-97.22616,37.68659],[-97.26216,37.68649],[-97.26225,37.7064],[-97.26024,37.7056],[-97.25834,37.70658],[-97.2589,37.70841],[-97.26001,37.70841],[-97.26014,37.7106],[-97.26228,37.71048],[-97.26229,37.71855],[-97.25844,37.71905],[-97.25921,37.723],[-97.25097,37.72301],[-97.2507,37.72494],[-97.24902,37.72494],[-97.2489,37.72301],[-97.21609,37.72308],[-97.21615,37.72513],[-97.21502,37.72523],[-97.21457,37.72309],[-97.18966,37.7231],[-97.18953,37.68663],[-97.20786,37.6866],[-97.20784,37.68296],[-97.21244,37.68294],[-97.21243,37.67933],[-97.21982,37.67929],[-97.22613,37.6793],[-97.22616,37.68659]]],[[[-97.26231,37.72682],[-97.26113,37.72537],[-97.26186,37.72433],[-97.26092,37.72501],[-97.25983,37.723],[-97.26229,37.723],[-97.26231,37.72682]]]]}},{"type":"Feature","properties":{"zip":"67228"},"geometry":{"type":"MultiPolygon","coordinates":[[[[-97.17156,37.80459],[-97.17162,37.81059],[-97.16325,37.81062],[-97.16778,37.80983],[-97.16796,37.80843],[-97.17156,37.80459]]],[[[-97.17156,37.80459],[-97.17146,37.78151],[-97.16191,37.78155],[-97.16191,37.77396],[-97.15308,37.77397],[-97.15294,37.72329],[-97.18966,37.7231],[-97.18961,37.73038],[-97.17127,37.73052],[-97.1712,37.73783],[-97.18959,37.73777],[-97.1897,37.75239],[-97.1713,37.75237],[-97.17142,37.76697],[-97.18975,37.76699],[-97.18992,37.80357],[-97.1831,37.80517],[-97.17539,37.80321],[-97.17436,37.80422],[-97.17266,37.80321],[-97.17156,37.80459]]]]}},{"type":"Feature","properties":{"zip":"67219"},"geometry":{"type":"Polygon","coordinates":[[[-97.3381,37.73351],[-97.33809,37.73747],[-97.33698,37.73779],[-97.3381,37.74484],[-97.33702,37.74483],[-97.33702,37.7484],[-97.33596,37.74839],[-97.33598,37.7522],[-97.34186,37.75179],[-97.34232,37.75273],[-97.34006,37.75494],[-97.34004,37.75616],[-97.34128,37.75619],[-97.34004,37.75633],[-97.34104,37.75645],[-97.33847,37.75883],[-97.33659,37.75934],[-97.33674,37.76088],[-97.33742,37.76087],[-97.3363,37.76742],[-97.33768,37.77037],[-97.33709,37.77173],[-97.33868,37.7733],[-97.33867,37.78137],[-97.34286,37.78149],[-97.34501,37.78534],[-97.3451,37.78842],[-97.33917,37.78846],[-97.34048,37.78948],[-97.34049,37.80289],[-97.34166,37.80291],[-97.3421,37.81049],[-97.33593,37.81049],[-97.33596,37.82117],[-97.33903,37.82144],[-97.33925,37.82502],[-97.32667,37.825],[-97.32659,37.81048],[-97.31958,37.81047],[-97.31905,37.81057],[-97.32491,37.8108],[-97.32492,37.81416],[-97.3217,37.81415],[-97.32172,37.8176],[-97.31745,37.8176],[-97.31744,37.81059],[-97.31885,37.81042],[-97.29487,37.81047],[-97.29468,37.79834],[-97.29696,37.79834],[-97.29694,37.79682],[-97.29465,37.79592],[-97.28938,37.79593],[-97.28935,37.78851],[-97.29001,37.78851],[-97.28997,37.78348],[-97.29207,37.78315],[-97.29404,37.78134],[-97.2991,37.78133],[-97.29909,37.77889],[-97.29566,37.77936],[-97.29599,37.77757],[-97.29905,37.77369],[-97.29946,37.75225],[-97.28982,37.75224],[-97.28982,37.74891],[-97.28372,37.74901],[-97.28372,37.75031],[-97.28064,37.75033],[-97.28064,37.74929],[-97.29904,37.74168],[-97.29901,37.73367],[-97.29777,37.73367],[-97.29779,37.73186],[-97.29904,37.73185],[-97.29905,37.72277],[-97.3002,37.72276],[-97.30021,37.72458],[-97.30135,37.72457],[-97.30136,37.72275],[-97.30544,37.72273],[-97.30545,37.72407],[-97.30817,37.72371],[-97.30816,37.72271],[-97.31967,37.72267],[-97.31863,37.72798],[-97.32202,37.72831],[-97.32202,37.72981],[-97.32453,37.72994],[-97.32645,37.72735],[-97.32715,37.7293],[-97.33559,37.72868],[-97.33588,37.72987],[-97.33586,37.7244],[-97.33704,37.72439],[-97.33685,37.72259],[-97.33749,37.72259],[-97.33705,37.7286],[-97.3386,37.72986],[-97.3383,37.73307],[-97.33704,37.73353],[-97.3381,37.73351]],[[-97.3394,37.7895],[-97.33756,37.78945],[-97.33755,37.7905],[-97.33978,37.79048],[-97.3394,37.7895]]]}},{"type":"Feature","properties":{"zip":"67235"},"geometry":{"type":"MultiPolygon","coordinates":[[[[-97.47959,37.65556],[-97.48063,37.65421],[-97.4806,37.65558],[-97.47959,37.65556]]],[[[-97.48057,37.65652],[-97.47962,37.65727],[-97.47964,37.65651],[-97.48057,37.65652]]],[[[-97.48892,37.72228],[-97.4811,37.72238],[-97.48078,37.64488],[-97.48244,37.64486],[-97.48282,37.64618],[-97.48907,37.64611],[-97.48907,37.64299],[-97.49379,37.64308],[-97.49354,37.64989],[-97.51671,37.64977],[-97.51668,37.66235],[-97.51531,37.66261],[-97.51532,37.66396],[-97.512,37.6641],[-97.5167,37.66423],[-97.51708,37.70479],[-97.51599,37.70661],[-97.51601,37.70745],[-97.51714,37.70768],[-97.51728,37.73633],[-97.49911,37.7366],[-97.49903,37.72211],[-97.48986,37.72288],[-97.49052,37.72364],[-97.48933,37.72387],[-97.49029,37.72475],[-97.49004,37.72761],[-97.4895,37.72639],[-97.48832,37.7264],[-97.48826,37.72246],[-97.48892,37.72228]]]]}},{"type":"Feature","properties":{"zip":"67067"},"geometry":{"type":"Polygon","coordinates":[[[-97.24505,37.7959],[-97.24506,37.78143],[-97.28775,37.78079],[-97.29417,37.77212],[-97.29913,37.76818],[-97.29905,37.77369],[-97.29599,37.77757],[-97.29566,37.77936],[-97.29909,37.77889],[-97.2991,37.78133],[-97.29404,37.78134],[-97.29207,37.78315],[-97.28997,37.78348],[-97.29001,37.78851],[-97.28935,37.78851],[-97.28938,37.79593],[-97.29465,37.79592],[-97.29694,37.79682],[-97.29696,37.79834],[-97.29468,37.79834],[-97.29487,37.81047],[-97.28298,37.81044],[-97.28294,37.80895],[-97.28111,37.80894],[-97.28114,37.81043],[-97.26268,37.81045],[-97.2626,37.79791],[-97.25617,37.79595],[-97.24505,37.7959]]]}},{"type":"Feature","properties":{"zip":"67147"},"geometry":{"type":"Polygon","coordinates":[[[-97.40584,37.88314],[-97.37385,37.88312],[-97.37445,37.88623],[-97.37165,37.88657],[-97.36842,37.8892],[-97.36559,37.88989],[-97.36302,37.89362],[-97.36273,37.89603],[-97.36058,37.89729],[-97.33605,37.89725],[-97.33587,37.88273],[-97.33173,37.88273],[-97.31766,37.88279],[-97.31782,37.89731],[-97.28119,37.89751],[-97.28152,37.91228],[-97.26319,37.91231],[-97.26324,37.93364],[-97.24433,37.93369],[-97.24435,37.92691],[-97.22605,37.9269],[-97.22605,37.93383],[-97.20781,37.93392],[-97.20782,37.92674],[-97.17937,37.92683],[-97.17372,37.93413],[-97.16548,37.93415],[-97.16431,37.93194],[-97.16573,37.93073],[-97.16525,37.92982],[-97.16366,37.93011],[-97.16403,37.92899],[-97.1616,37.92992],[-97.1598,37.92824],[-97.15826,37.92817],[-97.1578,37.92946],[-97.1559,37.92973],[-97.154,37.92849],[-97.15261,37.92879],[-97.15232,37.88135],[-97.15321,37.88237],[-97.15794,37.88319],[-97.1706,37.88364],[-97.17071,37.84005],[-97.20734,37.8402],[-97.20776,37.8251],[-97.22671,37.82505],[-97.22673,37.79599],[-97.25617,37.79595],[-97.2626,37.79791],[-97.26268,37.81045],[-97.28114,37.81043],[-97.28111,37.80894],[-97.28294,37.80895],[-97.28298,37.81044],[-97.31885,37.81042],[-97.31744,37.81059],[-97.31745,37.8176],[-97.32172,37.8176],[-97.3217,37.81415],[-97.32492,37.81416],[-97.32491,37.8108],[-97.31905,37.81057],[-97.32659,37.81048],[-97.32667,37.825],[-97.33211,37.82507],[-97.34202,37.82504],[-97.34288,37.82324],[-97.34975,37.82323],[-97.34977,37.8249],[-97.35436,37.82502],[-97.35432,37.81495],[-97.35291,37.8115],[-97.35405,37.81297],[-97.35434,37.81045],[-97.36229,37.81047],[-97.36751,37.81918],[-97.36994,37.81674],[-97.37037,37.81156],[-97.37197,37.81062],[-97.37196,37.80698],[-97.37672,37.80701],[-97.37668,37.81053],[-97.38104,37.81061],[-97.38103,37.79605],[-97.40818,37.79635],[-97.40861,37.80821],[-97.42019,37.80759],[-97.42043,37.80922],[-97.42145,37.8076],[-97.42816,37.81045],[-97.43256,37.8102],[-97.4382,37.80734],[-97.44335,37.80759],[-97.4565,37.8132],[-97.46008,37.8168],[-97.46169,37.82287],[-97.47189,37.82843],[-97.47631,37.82919],[-97.48196,37.82866],[-97.48187,37.82508],[-97.50722,37.82507],[-97.51082,37.82581],[-97.51276,37.8278],[-97.51478,37.83326],[-97.51326,37.83936],[-97.51366,37.84194],[-97.51883,37.84259],[-97.51888,37.85425],[-97.47292,37.85415],[-97.47293,37.86076],[-97.4638,37.86075],[-97.46381,37.86867],[-97.42699,37.86865],[-97.42704,37.88322],[-97.40867,37.88314],[-97.40872,37.88797],[-97.40584,37.88314]]]}},{"type":"Feature","properties":{"zip":"67060"},"geometry":{"type":"Polygon","coordinates":[[[-97.35149,37.52089],[-97.40622,37.52028],[-97.40677,37.54942],[-97.44311,37.54899],[-97.4433,37.55651],[-97.43929,37.56022],[-97.44091,37.56196],[-97.43948,37.56469],[-97.44184,37.56592],[-97.44116,37.56747],[-97.44198,37.56966],[-97.44026,37.57023],[-97.439,37.57503],[-97.43063,37.57547],[-97.42988,37.57593],[-97.42994,37.57841],[-97.40705,37.57861],[-97.40703,37.57127],[-97.40311,37.57132],[-97.40345,37.56405],[-97.38875,37.56417],[-97.38889,37.5787],[-97.3705,37.57852],[-97.3705,37.5804],[-97.3661,37.57654],[-97.35954,37.57393],[-97.32593,37.57348],[-97.32593,37.57285],[-97.31948,37.57169],[-97.30703,37.56439],[-97.31069,37.5644],[-97.30659,37.562],[-97.30641,37.54989],[-97.29786,37.54955],[-97.2974,37.54258],[-97.28817,37.54261],[-97.28814,37.52113],[-97.28992,37.52067],[-97.28976,37.51085],[-97.29569,37.51081],[-97.29594,37.50606],[-97.29748,37.50601],[-97.2974,37.52066],[-97.30636,37.52065],[-97.30625,37.50593],[-97.31567,37.50594],[-97.32642,37.50633],[-97.32499,37.50843],[-97.32498,37.51729],[-97.3324,37.52062],[-97.33928,37.51987],[-97.33892,37.51496],[-97.35162,37.51514],[-97.35149,37.52089]]]}},{"type":"Feature","properties":{"zip":"67204"},"geometry":{"type":"MultiPolygon","coordinates":[[[[-97.38628,37.7255],[-97.37516,37.73671],[-97.37521,37.75253],[-97.37707,37.75393],[-97.37977,37.75382],[-97.37986,37.76076],[-97.3883,37.77186],[-97.39142,37.78156],[-97.39028,37.78158],[-97.39108,37.78289],[-97.40004,37.78895],[-97.40653,37.79096],[-97.41126,37.79021],[-97.41389,37.79135],[-97.41957,37.80162],[-97.42019,37.80759],[-97.40861,37.80821],[-97.40829,37.79637],[-97.38103,37.79605],[-97.38104,37.81061],[-97.37668,37.81053],[-97.37672,37.80701],[-97.37196,37.80698],[-97.37197,37.81062],[-97.37037,37.81156],[-97.36994,37.81674],[-97.36751,37.81918],[-97.36229,37.81047],[-97.35434,37.81045],[-97.35405,37.81297],[-97.35291,37.8115],[-97.35432,37.81495],[-97.35436,37.82502],[-97.34977,37.8249],[-97.34952,37.82323],[-97.34288,37.82324],[-97.34202,37.82504],[-97.33925,37.82502],[-97.33903,37.82144],[-97.33596,37.82117],[-97.33593,37.81049],[-97.3421,37.81049],[-97.34166,37.80291],[-97.34049,37.80289],[-97.34048,37.78948],[-97.33917,37.78846],[-97.3451,37.78842],[-97.34501,37.78534],[-97.34286,37.78149],[-97.33867,37.78137],[-97.33868,37.7733],[-97.33709,37.77173],[-97.33768,37.77037],[-97.3363,37.76742],[-97.33742,37.76087],[-97.33674,37.76088],[-97.33659,37.75934],[-97.33847,37.75883],[-97.34104,37.75645],[-97.34004,37.75633],[-97.34128,37.75619],[-97.34004,37.75616],[-97.34006,37.75494],[-97.34232,37.75273],[-97.34186,37.75179],[-97.33598,37.7522],[-97.33596,37.74839],[-97.33702,37.7484],[-97.33702,37.74483],[-97.3381,37.74484],[-97.33809,37.74109],[-97.337,37.74108],[-97.337,37.73746],[-97.33809,37.73747],[-97.33811,37.73629],[-97.3381,37.73351],[-97.33704,37.73308],[-97.3383,37.73307],[-97.3386,37.72986],[-97.33705,37.7286],[-97.33749,37.72259],[-97.34934,37.72257],[-97.3493,37.72177],[-97.35207,37.72302],[-97.35391,37.72201],[-97.35277,37.72345],[-97.35611,37.72421],[-97.35611,37.72259],[-97.3835,37.72323],[-97.38628,37.7255]]],[[[-97.33756,37.78945],[-97.33953,37.78955],[-97.33983,37.79042],[-97.33755,37.7905],[-97.33756,37.78945]]]]}},{"type":"Feature","properties":{"zip":"67212"},"geometry":{"type":"Polygon","coordinates":[[[-97.48067,37.68401],[-97.4811,37.72238],[-97.46267,37.72271],[-97.46267,37.72085],[-97.46077,37.72034],[-97.45688,37.72127],[-97.45691,37.72281],[-97.42621,37.72323],[-97.42613,37.71627],[-97.4192,37.71608],[-97.41892,37.71747],[-97.41699,37.7184],[-97.41714,37.72333],[-97.40798,37.72341],[-97.40714,37.72139],[-97.39953,37.71411],[-97.38967,37.72265],[-97.39149,37.7204],[-97.38976,37.72024],[-97.38968,37.71102],[-97.39168,37.71106],[-97.39158,37.70886],[-97.39412,37.70892],[-97.38967,37.70465],[-97.38967,37.70157],[-97.39098,37.70158],[-97.3909,37.69855],[-97.38959,37.69854],[-97.3894,37.68935],[-97.39168,37.68933],[-97.39168,37.68752],[-97.38938,37.68754],[-97.38938,37.68391],[-97.408,37.68371],[-97.40493,37.68011],[-97.42261,37.67993],[-97.42254,37.68113],[-97.42036,37.6823],[-97.42014,37.68364],[-97.42241,37.68359],[-97.42344,37.68514],[-97.42605,37.68518],[-97.42602,37.68355],[-97.42876,37.683],[-97.4292,37.67983],[-97.43084,37.68035],[-97.43113,37.68337],[-97.43257,37.68373],[-97.43414,37.68247],[-97.43459,37.68374],[-97.45208,37.68306],[-97.45265,37.67944],[-97.45772,37.67935],[-97.45886,37.6803],[-97.45624,37.68157],[-97.45673,37.68285],[-97.45867,37.68313],[-97.46176,37.68639],[-97.46266,37.68633],[-97.46255,37.68234],[-97.46612,37.68324],[-97.46905,37.68175],[-97.47435,37.68399],[-97.47994,37.68315],[-97.48067,37.68401]]]}},{"type":"Feature","properties":{"zip":"67220"},"geometry":{"type":"Polygon","coordinates":[[[-97.29946,37.75225],[-97.29921,37.76812],[-97.29417,37.77212],[-97.28775,37.78079],[-97.26252,37.78135],[-97.26247,37.76283],[-97.26104,37.76274],[-97.26246,37.76203],[-97.26242,37.75581],[-97.2592,37.75597],[-97.25685,37.75362],[-97.25765,37.75058],[-97.26056,37.74735],[-97.26238,37.7474],[-97.2623,37.72496],[-97.26594,37.72462],[-97.26636,37.723],[-97.26927,37.72299],[-97.26986,37.72528],[-97.27382,37.72501],[-97.27382,37.72331],[-97.27272,37.72297],[-97.27611,37.72297],[-97.27609,37.72512],[-97.27837,37.72521],[-97.27992,37.72511],[-97.28066,37.72294],[-97.29905,37.72277],[-97.29904,37.73185],[-97.29779,37.73186],[-97.29777,37.73367],[-97.29901,37.73367],[-97.29904,37.74168],[-97.28064,37.74929],[-97.28064,37.75033],[-97.28372,37.75031],[-97.28372,37.74901],[-97.28982,37.74891],[-97.28982,37.75224],[-97.29946,37.75225]]]}},{"type":"Feature","properties":{"zip":"67215"},"geometry":{"type":"Polygon","coordinates":[[[-97.45188,37.61525],[-97.45191,37.61455],[-97.46123,37.61442],[-97.46158,37.61279],[-97.46297,37.61276],[-97.46369,37.61402],[-97.47154,37.6101],[-97.47154,37.60914],[-97.47507,37.60891],[-97.47519,37.60769],[-97.48018,37.60651],[-97.48085,37.65015],[-97.44379,37.65063],[-97.44501,37.64286],[-97.44937,37.63667],[-97.45258,37.63523],[-97.45221,37.62959],[-97.43335,37.63395],[-97.43327,37.63665],[-97.42576,37.6357],[-97.41751,37.63771],[-97.41749,37.6389],[-97.4186,37.63888],[-97.41857,37.64665],[-97.41665,37.64662],[-97.41665,37.64755],[-97.40732,37.64751],[-97.40732,37.65131],[-97.40387,37.65153],[-97.40352,37.64428],[-97.39893,37.64669],[-97.3928,37.63349],[-97.3928,37.62254],[-97.3891,37.62253],[-97.38901,37.61684],[-97.39109,37.61685],[-97.39276,37.61824],[-97.39309,37.61245],[-97.39589,37.60843],[-97.38993,37.60065],[-97.3705,37.5804],[-97.3705,37.57852],[-97.38889,37.5787],[-97.38875,37.56417],[-97.40345,37.56405],[-97.40311,37.57132],[-97.40703,37.57127],[-97.40705,37.57861],[-97.42554,37.57849],[-97.42588,37.61025],[-97.43031,37.61072],[-97.43796,37.60834],[-97.44216,37.60888],[-97.44288,37.61033],[-97.44533,37.61076],[-97.44659,37.61291],[-97.44582,37.61561],[-97.44867,37.61478],[-97.44924,37.61639],[-97.4508,37.61458],[-97.45188,37.61525]]]}},{"type":"Feature","properties":{"zip":"67042"},"geometry":{"type":"Polygon","coordinates":[[[-96.92097,37.72296],[-96.94315,37.70114],[-96.94864,37.7011],[-96.94858,37.71591],[-96.95302,37.71603],[-96.953,37.73756],[-96.9603,37.74192],[-96.9613,37.74128],[-96.96071,37.74005],[-96.96466,37.73795],[-96.96592,37.74035],[-96.9649,37.74532],[-96.9987,37.74533],[-96.99859,37.7523],[-96.97116,37.75236],[-96.97082,37.7811],[-96.97994,37.78123],[-96.9801,37.78495],[-96.9815,37.7859],[-96.98218,37.78965],[-96.98631,37.79142],[-96.98917,37.79152],[-96.98921,37.79788],[-96.98106,37.80447],[-96.97117,37.80543],[-96.9712,37.80653],[-96.95836,37.81085],[-96.93534,37.81606],[-96.93555,37.82469],[-96.98729,37.82491],[-96.98691,37.83126],[-96.98544,37.83112],[-96.98261,37.83382],[-96.98371,37.83554],[-96.98064,37.83729],[-96.98139,37.83833],[-96.9797,37.83855],[-96.97896,37.83966],[-96.96887,37.83965],[-96.96326,37.84133],[-96.96323,37.84357],[-96.96135,37.84371],[-96.95983,37.84632],[-96.95679,37.84562],[-96.9571,37.8469],[-96.95481,37.84704],[-96.95355,37.84874],[-96.95453,37.85009],[-96.95306,37.85224],[-96.95048,37.85247],[-96.9506,37.88309],[-96.96881,37.88343],[-96.96903,37.90522],[-96.99557,37.90512],[-96.99781,37.90525],[-96.99672,37.90592],[-96.9956,37.90517],[-96.99447,37.90624],[-96.99531,37.90859],[-96.98937,37.91214],[-96.95842,37.9119],[-96.95067,37.90811],[-96.95068,37.9052],[-96.93229,37.90519],[-96.93227,37.89755],[-96.92662,37.89811],[-96.92341,37.90087],[-96.9234,37.89707],[-96.89565,37.89721],[-96.8686,37.92397],[-96.86913,37.96337],[-96.85368,37.98419],[-96.75864,37.98452],[-96.75862,37.96984],[-96.74051,37.96985],[-96.74069,37.96876],[-96.73831,37.96847],[-96.7403,37.96687],[-96.73858,37.96604],[-96.74141,37.96413],[-96.74055,37.96305],[-96.74117,37.96197],[-96.74008,37.96152],[-96.74437,37.9607],[-96.74303,37.95942],[-96.74356,37.95867],[-96.74513,37.95907],[-96.74416,37.95777],[-96.74544,37.95546],[-96.73716,37.95549],[-96.72233,37.97019],[-96.70661,37.9704],[-96.69389,37.97039],[-96.69384,37.95585],[-96.62073,37.95576],[-96.62007,37.81786],[-96.62136,37.81787],[-96.62138,37.81671],[-96.62498,37.81672],[-96.62494,37.8104],[-96.66158,37.81054],[-96.66147,37.79574],[-96.67976,37.79575],[-96.67964,37.78116],[-96.66145,37.78112],[-96.66115,37.75196],[-96.67489,37.75201],[-96.67485,37.74468],[-96.67933,37.74468],[-96.67937,37.7415],[-96.69223,37.73979],[-96.69791,37.73735],[-96.69776,37.752],[-96.71588,37.75196],[-96.71586,37.7665],[-96.73417,37.76645],[-96.73424,37.7519],[-96.75185,37.75185],[-96.77066,37.75193],[-96.77076,37.76645],[-96.78913,37.76641],[-96.78894,37.75185],[-96.80729,37.75196],[-96.80725,37.73753],[-96.82527,37.73765],[-96.82535,37.75201],[-96.82997,37.75193],[-96.82944,37.75102],[-96.83114,37.75066],[-96.83212,37.74928],[-96.83404,37.74955],[-96.83423,37.7482],[-96.83894,37.74782],[-96.8426,37.74483],[-96.84438,37.7453],[-96.84451,37.73748],[-96.86211,37.73759],[-96.8622,37.723],[-96.84458,37.72308],[-96.84471,37.69399],[-96.86224,37.69394],[-96.86224,37.7085],[-96.89862,37.70837],[-96.89859,37.71893],[-96.89989,37.71846],[-96.901,37.71934],[-96.90038,37.72163],[-96.90228,37.72329],[-96.90381,37.72093],[-96.90608,37.72259],[-96.90885,37.7211],[-96.91087,37.72152],[-96.91153,37.72296],[-96.92097,37.72296]],[[-96.67976,37.79575],[-96.67988,37.81029],[-96.69833,37.81048],[-96.69825,37.79574],[-96.67976,37.79575]]]}},{"type":"Feature","properties":{"zip":"67002"},"geometry":{"type":"MultiPolygon","coordinates":[[[[-97.05287,37.71206],[-97.06354,37.71142],[-97.06349,37.71034],[-97.06203,37.70978],[-97.06201,37.69413],[-97.0652,37.6941],[-97.06523,37.68839],[-97.06201,37.68691],[-97.06204,37.6797],[-97.08023,37.67961],[-97.08049,37.65061],[-97.08639,37.65003],[-97.08444,37.64879],[-97.08424,37.64757],[-97.08331,37.64939],[-97.08143,37.64833],[-97.08039,37.65034],[-97.07888,37.65063],[-97.0781,37.64894],[-97.0767,37.64919],[-97.07456,37.64727],[-97.07,37.64636],[-97.07187,37.64432],[-97.07138,37.64349],[-97.07034,37.6437],[-97.06973,37.64527],[-97.06892,37.64399],[-97.06667,37.64552],[-97.06604,37.64384],[-97.06356,37.64438],[-97.06301,37.6437],[-97.06466,37.64266],[-97.06258,37.64214],[-97.0624,37.63948],[-97.06384,37.63889],[-97.06221,37.63835],[-97.06258,37.63597],[-97.13611,37.63603],[-97.15305,37.63577],[-97.15294,37.74187],[-97.14853,37.74487],[-97.14427,37.74493],[-97.14317,37.74625],[-97.13799,37.74521],[-97.13527,37.74679],[-97.13524,37.73799],[-97.11689,37.73801],[-97.1169,37.75247],[-97.09763,37.75247],[-97.09763,37.75106],[-97.0954,37.75119],[-97.09518,37.75247],[-97.05475,37.75237],[-97.05315,37.74326],[-97.06578,37.73792],[-97.05746,37.73787],[-97.05746,37.72318],[-97.05284,37.72321],[-97.05287,37.71206]]],[[[-97.13546,37.63464],[-97.13546,37.63594],[-97.13219,37.63593],[-97.13221,37.63474],[-97.13546,37.63464]]]]}},{"type":"Feature","properties":{"zip":"67210"},"geometry":{"type":"Polygon","coordinates":[[[-97.2905,37.6278],[-97.28619,37.6351],[-97.29886,37.63507],[-97.29875,37.65001],[-97.29518,37.64866],[-97.29472,37.65004],[-97.27713,37.65011],[-97.27698,37.64819],[-97.27382,37.6501],[-97.26259,37.65009],[-97.26317,37.64292],[-97.24447,37.64283],[-97.24448,37.65007],[-97.17551,37.65022],[-97.17675,37.64899],[-97.18064,37.64812],[-97.18354,37.64498],[-97.18288,37.64292],[-97.18377,37.64187],[-97.18962,37.64186],[-97.18965,37.62118],[-97.20796,37.62109],[-97.20796,37.62249],[-97.21793,37.62562],[-97.21793,37.621],[-97.24435,37.62094],[-97.24444,37.63552],[-97.24535,37.63551],[-97.24487,37.62474],[-97.24895,37.62224],[-97.24929,37.62099],[-97.25289,37.62081],[-97.25472,37.6192],[-97.25559,37.61637],[-97.25831,37.61515],[-97.25866,37.6107],[-97.26544,37.61001],[-97.26677,37.60583],[-97.26854,37.60554],[-97.2696,37.60288],[-97.27747,37.60353],[-97.27945,37.60474],[-97.28038,37.6035],[-97.27989,37.59155],[-97.28523,37.59152],[-97.28844,37.5978],[-97.29094,37.60569],[-97.29526,37.62524],[-97.2905,37.6278]]]}},{"type":"Feature","properties":{"zip":"67211"},"geometry":{"type":"Polygon","coordinates":[[[-97.32638,37.68608],[-97.29896,37.6863],[-97.29884,37.66822],[-97.29426,37.66824],[-97.29424,37.66642],[-97.29883,37.66638],[-97.29881,37.66154],[-97.29689,37.65915],[-97.29881,37.65914],[-97.29875,37.65001],[-97.33111,37.64976],[-97.33108,37.64605],[-97.33552,37.6464],[-97.33553,37.64972],[-97.33745,37.64971],[-97.33678,37.65519],[-97.33809,37.65517],[-97.33731,37.66764],[-97.3381,37.66794],[-97.33811,37.67457],[-97.33679,37.67458],[-97.33679,37.67605],[-97.3381,37.67603],[-97.33813,37.67909],[-97.3264,37.6789],[-97.32638,37.68608]]]}},{"type":"Feature","properties":{"zip":"67202"},"geometry":{"type":"Polygon","coordinates":[[[-97.3264,37.6789],[-97.34271,37.6789],[-97.34371,37.68545],[-97.34516,37.68873],[-97.3531,37.69125],[-97.34913,37.69082],[-97.35167,37.69335],[-97.35008,37.69334],[-97.3452,37.69153],[-97.3432,37.6898],[-97.34339,37.69141],[-97.34203,37.69158],[-97.34127,37.69481],[-97.34061,37.69347],[-97.33298,37.69347],[-97.33297,37.69483],[-97.33167,37.69484],[-97.33167,37.69348],[-97.33042,37.69349],[-97.33045,37.69757],[-97.33019,37.69421],[-97.32968,37.69544],[-97.32763,37.69621],[-97.32783,37.6935],[-97.32647,37.69351],[-97.32644,37.69167],[-97.32532,37.69167],[-97.32639,37.68798],[-97.32528,37.68798],[-97.32525,37.68607],[-97.32638,37.68608],[-97.3264,37.6789]]]}},{"type":"Feature","properties":{"zip":"67101"},"geometry":{"type":"Polygon","coordinates":[[[-97.49941,37.75111],[-97.50003,37.79457],[-97.4815,37.79494],[-97.48173,37.80214],[-97.48324,37.80232],[-97.48749,37.80824],[-97.49407,37.8091],[-97.48194,37.80983],[-97.48196,37.82866],[-97.47631,37.82919],[-97.47189,37.82843],[-97.46505,37.82418],[-97.46345,37.82414],[-97.46169,37.82287],[-97.46008,37.8168],[-97.4565,37.8132],[-97.44335,37.80759],[-97.4382,37.80734],[-97.43256,37.8102],[-97.42694,37.81001],[-97.42672,37.78141],[-97.43437,37.78124],[-97.43447,37.77999],[-97.42804,37.77782],[-97.4291,37.77372],[-97.4306,37.77205],[-97.43028,37.76656],[-97.43358,37.75953],[-97.44058,37.75956],[-97.44475,37.76086],[-97.44467,37.75198],[-97.47203,37.75156],[-97.47209,37.75882],[-97.47804,37.75874],[-97.48067,37.75773],[-97.48067,37.75143],[-97.48194,37.7514],[-97.48999,37.75126],[-97.48987,37.7583],[-97.49914,37.75826],[-97.49927,37.75257],[-97.49835,37.7526],[-97.49838,37.75165],[-97.49941,37.75111]]]}},{"type":"Feature","properties":{"zip":"67010"},"geometry":{"type":"Polygon","coordinates":[[[-96.89989,37.71846],[-96.89859,37.71893],[-96.89862,37.70837],[-96.86224,37.7085],[-96.86224,37.69394],[-96.84395,37.694],[-96.84348,37.67643],[-96.83916,37.67827],[-96.84242,37.67627],[-96.84407,37.67293],[-96.84403,37.65045],[-96.82875,37.6506],[-96.82835,37.64973],[-96.82913,37.64911],[-96.83259,37.64998],[-96.83318,37.64921],[-96.83242,37.64744],[-96.83416,37.64677],[-96.83731,37.64848],[-96.83984,37.64782],[-96.83964,37.6456],[-96.8423,37.64563],[-96.84241,37.64324],[-96.84487,37.64386],[-96.84556,37.64175],[-96.85145,37.63948],[-96.85966,37.63943],[-96.8652,37.63724],[-96.86604,37.63786],[-96.86433,37.63874],[-96.86492,37.63974],[-96.86901,37.64013],[-96.86935,37.63804],[-96.87094,37.63911],[-96.8758,37.63944],[-96.8769,37.63828],[-96.87965,37.6378],[-96.8786,37.64007],[-96.88057,37.64015],[-96.88068,37.61242],[-96.88195,37.61192],[-96.88193,37.61072],[-96.88534,37.60904],[-96.88983,37.6097],[-96.89018,37.60809],[-96.89212,37.60637],[-96.89393,37.60699],[-96.89278,37.60869],[-96.89442,37.6106],[-96.8985,37.6106],[-96.90495,37.60681],[-96.90736,37.60771],[-96.90754,37.59971],[-96.92643,37.59966],[-96.92645,37.59578],[-96.93531,37.59579],[-96.9353,37.60665],[-96.97179,37.60672],[-96.97184,37.57768],[-96.99008,37.57771],[-96.99013,37.5842],[-96.99479,37.58431],[-96.99379,37.5886],[-96.99997,37.58881],[-97.00365,37.58497],[-97.00422,37.58292],[-97.00765,37.58404],[-97.00656,37.58009],[-97.00197,37.57953],[-97.0013,37.57789],[-97.00256,37.57665],[-97.00618,37.57665],[-97.01212,37.575],[-97.01239,37.57238],[-97.01403,37.57007],[-97.01338,37.56326],[-97.02652,37.56323],[-97.02657,37.60685],[-97.04377,37.6068],[-97.04376,37.59224],[-97.06211,37.59226],[-97.06208,37.60446],[-97.0804,37.59906],[-97.08027,37.62128],[-97.07526,37.6214],[-97.07526,37.62474],[-97.08028,37.62486],[-97.08038,37.636],[-97.06258,37.63597],[-97.06221,37.63814],[-97.06384,37.63889],[-97.0624,37.63948],[-97.06259,37.64218],[-97.06466,37.64266],[-97.06301,37.6437],[-97.06356,37.64438],[-97.06604,37.64384],[-97.06667,37.64552],[-97.06892,37.64399],[-97.06973,37.64527],[-97.07034,37.6437],[-97.07138,37.64349],[-97.07187,37.64432],[-97.07,37.64636],[-97.07456,37.64727],[-97.0767,37.64919],[-97.0781,37.64894],[-97.07888,37.65063],[-97.08039,37.65034],[-97.08143,37.64833],[-97.08331,37.64939],[-97.08409,37.64758],[-97.08444,37.64879],[-97.08631,37.64977],[-97.08604,37.65053],[-97.08049,37.65061],[-97.08023,37.67961],[-97.06204,37.6797],[-97.06201,37.68691],[-97.06523,37.68839],[-97.0652,37.6941],[-97.06201,37.69413],[-97.06203,37.70978],[-97.06349,37.71034],[-97.06354,37.71208],[-97.05287,37.71206],[-97.05284,37.72321],[-97.05746,37.72318],[-97.05746,37.73787],[-97.06578,37.73792],[-97.04689,37.74584],[-97.01691,37.7548],[-97.01715,37.7261],[-97.01648,37.72533],[-97.01714,37.72314],[-96.99881,37.72305],[-96.9987,37.74533],[-96.9649,37.74532],[-96.96592,37.74035],[-96.96466,37.73795],[-96.96071,37.74005],[-96.9613,37.74128],[-96.9603,37.74192],[-96.953,37.73756],[-96.95302,37.71603],[-96.94858,37.71591],[-96.94864,37.7011],[-96.94315,37.70114],[-96.9401,37.70343],[-96.92097,37.72296],[-96.91153,37.72296],[-96.91087,37.72152],[-96.90885,37.7211],[-96.90608,37.72259],[-96.90381,37.72093],[-96.90228,37.72329],[-96.90038,37.72163],[-96.901,37.71934],[-96.89989,37.71846]]]}},{"type":"Feature","properties":{"zip":"67117"},"geometry":{"type":"Polygon","coordinates":[[[-97.3552,38.0864],[-97.34606,38.08445],[-97.34523,38.07662],[-97.34172,38.07655],[-97.34096,38.07522],[-97.33959,38.07503],[-97.33959,38.07183],[-97.33682,38.07182],[-97.33679,38.06626],[-97.34201,38.06212],[-97.34522,38.06498],[-97.34522,38.0639],[-97.35749,38.07473],[-97.35664,38.07881],[-97.35516,38.07888],[-97.3552,38.0864]]]}},{"type":"Feature","properties":{"zip":"67205"},"geometry":{"type":"Polygon","coordinates":[[[-97.47176,37.75157],[-97.44467,37.75198],[-97.44475,37.76086],[-97.44058,37.75956],[-97.43358,37.75953],[-97.43028,37.76656],[-97.4306,37.77205],[-97.42801,37.77727],[-97.42865,37.77839],[-97.43433,37.77976],[-97.43437,37.78124],[-97.42672,37.78141],[-97.42694,37.81001],[-97.42145,37.8076],[-97.42043,37.80922],[-97.41957,37.80162],[-97.41389,37.79135],[-97.41126,37.79021],[-97.40653,37.79096],[-97.40004,37.78895],[-97.39413,37.78558],[-97.39055,37.78213],[-97.39028,37.78158],[-97.39142,37.78156],[-97.3883,37.77186],[-97.37986,37.76076],[-97.37977,37.75382],[-97.37663,37.75379],[-97.37511,37.75226],[-97.3749,37.73781],[-97.37667,37.73448],[-97.39953,37.71411],[-97.40714,37.72139],[-97.40798,37.72341],[-97.41714,37.72333],[-97.41699,37.7184],[-97.41892,37.71747],[-97.4192,37.71608],[-97.42613,37.71627],[-97.42621,37.72323],[-97.45691,37.72281],[-97.45688,37.72127],[-97.46077,37.72034],[-97.46267,37.72085],[-97.46267,37.72271],[-97.4811,37.72238],[-97.48067,37.75773],[-97.47804,37.75874],[-97.47209,37.75882],[-97.47176,37.75157]]]}},{"type":"Feature","properties":{"zip":"67226"},"geometry":{"type":"Polygon","coordinates":[[[-97.26246,37.76158],[-97.26104,37.76274],[-97.26247,37.76283],[-97.26252,37.78135],[-97.24506,37.78143],[-97.24505,37.7959],[-97.22673,37.79599],[-97.22671,37.82505],[-97.20776,37.8251],[-97.20734,37.8402],[-97.17071,37.84005],[-97.17048,37.82514],[-97.17176,37.82513],[-97.17202,37.80335],[-97.17436,37.80422],[-97.17539,37.80321],[-97.17759,37.80348],[-97.1831,37.80517],[-97.18564,37.8043],[-97.18754,37.80474],[-97.18992,37.80357],[-97.18983,37.79613],[-97.20831,37.79607],[-97.20816,37.78153],[-97.20146,37.7816],[-97.20146,37.78287],[-97.20254,37.78289],[-97.18979,37.78627],[-97.18975,37.76699],[-97.17142,37.76697],[-97.1713,37.75237],[-97.1897,37.75239],[-97.1897,37.74692],[-97.18959,37.73777],[-97.1712,37.73783],[-97.17127,37.73052],[-97.18961,37.73038],[-97.18966,37.7231],[-97.21457,37.72309],[-97.21502,37.72523],[-97.21615,37.72513],[-97.21609,37.72308],[-97.2489,37.72301],[-97.24902,37.72494],[-97.2507,37.72494],[-97.25097,37.72301],[-97.25983,37.723],[-97.26092,37.72501],[-97.26186,37.72433],[-97.26115,37.7259],[-97.26231,37.72682],[-97.26238,37.7474],[-97.26056,37.74735],[-97.25765,37.75058],[-97.25685,37.75362],[-97.2592,37.75597],[-97.26242,37.75581],[-97.26246,37.76158]]]}},{"type":"Feature","properties":{"zip":"67223"},"geometry":{"type":"Polygon","coordinates":[[[-97.50877,37.75819],[-97.49923,37.75826],[-97.49941,37.75111],[-97.49838,37.75165],[-97.49835,37.7526],[-97.49927,37.75257],[-97.49914,37.75826],[-97.48987,37.7583],[-97.48999,37.75126],[-97.48083,37.75143],[-97.4811,37.72238],[-97.48892,37.72228],[-97.48826,37.72246],[-97.48832,37.7264],[-97.4895,37.72639],[-97.49004,37.72761],[-97.49029,37.72475],[-97.48933,37.72387],[-97.49052,37.72364],[-97.48986,37.72288],[-97.49903,37.72211],[-97.49911,37.7366],[-97.51728,37.73633],[-97.51754,37.75995],[-97.51378,37.7611],[-97.51258,37.75771],[-97.50906,37.75643],[-97.50877,37.75819]]]}},{"type":"Feature","properties":{"zip":"67039"},"geometry":{"type":"Polygon","coordinates":[[[-97.01338,37.56326],[-97.01403,37.57007],[-97.01239,37.57238],[-97.01212,37.575],[-97.00618,37.57665],[-97.00256,37.57665],[-97.0013,37.57789],[-97.00197,37.57953],[-97.00656,37.58009],[-97.00765,37.58404],[-97.00422,37.58292],[-97.00365,37.58497],[-96.99997,37.58881],[-96.99379,37.5886],[-96.99479,37.58431],[-96.99013,37.5842],[-96.99008,37.57771],[-96.97184,37.57768],[-96.97179,37.60672],[-96.9353,37.60665],[-96.93531,37.59579],[-96.92645,37.59578],[-96.92643,37.59966],[-96.91893,37.59965],[-96.92351,37.59628],[-96.92155,37.59486],[-96.9175,37.59477],[-96.91739,37.59227],[-96.89907,37.59232],[-96.89908,37.57768],[-96.88075,37.57773],[-96.88076,37.57123],[-96.87836,37.57163],[-96.8772,37.57075],[-96.87448,37.57193],[-96.87113,37.57025],[-96.86242,37.57045],[-96.86241,37.56322],[-96.84413,37.56327],[-96.84406,37.47619],[-97.01672,37.47581],[-97.01673,37.47474],[-97.01817,37.47395],[-97.02137,37.4743],[-97.02301,37.46892],[-97.02599,37.4689],[-97.0257,37.46251],[-97.08008,37.46234],[-97.08244,37.4624],[-97.08022,37.46612],[-97.08055,37.4756],[-97.15333,37.47554],[-97.15311,37.50472],[-97.13533,37.50472],[-97.13542,37.51933],[-97.09883,37.51945],[-97.08331,37.52845],[-97.08038,37.53243],[-97.08033,37.53796],[-97.08124,37.53883],[-97.08032,37.53983],[-97.0804,37.54841],[-97.04377,37.54858],[-97.04372,37.5631],[-97.03557,37.56408],[-97.031,37.56317],[-97.01338,37.56326]]]}},{"type":"Feature","properties":{"zip":"67017"},"geometry":{"type":"Polygon","coordinates":[[[-97.13422,37.91696],[-97.13379,37.89809],[-97.07869,37.89805],[-97.07868,37.88349],[-97.06049,37.88305],[-97.06056,37.86883],[-97.0422,37.86877],[-97.04224,37.82516],[-97.06246,37.8252],[-97.06235,37.80334],[-97.04401,37.80328],[-97.04398,37.79339],[-97.06216,37.79408],[-97.06204,37.78151],[-97.04387,37.78138],[-97.0438,37.76681],[-97.06201,37.76696],[-97.06199,37.75243],[-97.09518,37.75247],[-97.0954,37.75119],[-97.09763,37.75106],[-97.09763,37.75247],[-97.1169,37.75247],[-97.11689,37.73801],[-97.13524,37.73799],[-97.13527,37.74679],[-97.13799,37.74521],[-97.14317,37.74625],[-97.14427,37.74493],[-97.14853,37.74487],[-97.15294,37.74187],[-97.15308,37.77397],[-97.16191,37.77396],[-97.16191,37.78155],[-97.17146,37.78151],[-97.17156,37.80459],[-97.16796,37.80843],[-97.16778,37.80983],[-97.16325,37.81062],[-97.17162,37.81059],[-97.17176,37.82513],[-97.17048,37.82514],[-97.1706,37.88364],[-97.15794,37.88319],[-97.15321,37.88237],[-97.15232,37.88135],[-97.15279,37.93426],[-97.13433,37.93436],[-97.13432,37.93256],[-97.13708,37.93125],[-97.13624,37.92994],[-97.1372,37.92728],[-97.14014,37.92409],[-97.13702,37.92187],[-97.13802,37.92113],[-97.13745,37.91987],[-97.13832,37.91814],[-97.13422,37.91696]]]}},{"type":"Feature","properties":{"zip":"67207"},"geometry":{"type":"Polygon","coordinates":[[[-97.18952,37.65014],[-97.24448,37.65007],[-97.24447,37.64283],[-97.26317,37.64292],[-97.26259,37.65009],[-97.27175,37.65009],[-97.25641,37.66041],[-97.26213,37.6588],[-97.26214,37.66248],[-97.26138,37.66247],[-97.26213,37.66829],[-97.25843,37.66787],[-97.25719,37.6689],[-97.25792,37.67012],[-97.26213,37.67011],[-97.26214,37.67576],[-97.26105,37.67668],[-97.26216,37.67739],[-97.26216,37.68649],[-97.22616,37.68659],[-97.22613,37.6793],[-97.21982,37.67929],[-97.21243,37.67933],[-97.21244,37.68294],[-97.20784,37.68296],[-97.20786,37.6866],[-97.18953,37.68663],[-97.18952,37.65014]]]}},{"type":"Feature","properties":{"zip":"67216"},"geometry":{"type":"Polygon","coordinates":[[[-97.34619,37.65159],[-97.34131,37.64971],[-97.33553,37.64972],[-97.33552,37.6464],[-97.33217,37.64604],[-97.33108,37.64605],[-97.33111,37.64976],[-97.29875,37.65001],[-97.29886,37.63507],[-97.28619,37.6351],[-97.29084,37.6274],[-97.29526,37.62524],[-97.29094,37.60569],[-97.28562,37.59163],[-97.29852,37.59167],[-97.29949,37.59311],[-97.30118,37.59309],[-97.30115,37.5909],[-97.29407,37.5914],[-97.29413,37.58773],[-97.29868,37.58739],[-97.30222,37.58514],[-97.30441,37.57906],[-97.30365,37.57697],[-97.2939,37.57104],[-97.28813,37.5693],[-97.2872,37.56687],[-97.28804,37.56445],[-97.28962,37.56446],[-97.28958,37.56319],[-97.28743,37.55785],[-97.29268,37.55782],[-97.30358,37.56438],[-97.30703,37.56439],[-97.31948,37.57169],[-97.32593,37.57285],[-97.32593,37.57348],[-97.33404,37.57349],[-97.33402,37.57582],[-97.3373,37.57534],[-97.3373,37.57624],[-97.33588,37.57626],[-97.33588,37.57896],[-97.334,37.57896],[-97.33404,37.58614],[-97.33516,37.58612],[-97.33594,37.58805],[-97.33405,37.58804],[-97.33409,37.59248],[-97.33546,37.59262],[-97.33575,37.59353],[-97.33409,37.59354],[-97.33409,37.60091],[-97.34198,37.60093],[-97.34057,37.60638],[-97.33859,37.60461],[-97.33858,37.60804],[-97.33396,37.60793],[-97.33404,37.61008],[-97.3361,37.6116],[-97.33822,37.61169],[-97.33858,37.61394],[-97.33429,37.63022],[-97.33438,37.63709],[-97.33759,37.6371],[-97.33771,37.64269],[-97.33551,37.64272],[-97.33552,37.6448],[-97.34619,37.65159]]]}},{"type":"Feature","properties":{"zip":"67208"},"geometry":{"type":"Polygon","coordinates":[[[-97.26228,37.71048],[-97.26014,37.7106],[-97.26001,37.70841],[-97.2589,37.70841],[-97.25834,37.70658],[-97.26024,37.7056],[-97.26225,37.7064],[-97.26216,37.68649],[-97.29896,37.6863],[-97.29896,37.68824],[-97.2978,37.68825],[-97.29784,37.69007],[-97.29898,37.69006],[-97.29905,37.70827],[-97.29777,37.70827],[-97.29779,37.7101],[-97.29904,37.71008],[-97.29848,37.71552],[-97.29656,37.71553],[-97.29635,37.71673],[-97.29196,37.71635],[-97.2913,37.71739],[-97.28945,37.71751],[-97.28994,37.72097],[-97.28718,37.72125],[-97.28607,37.72289],[-97.28066,37.72294],[-97.27992,37.72511],[-97.27609,37.72512],[-97.27611,37.72297],[-97.27499,37.72295],[-97.27272,37.72297],[-97.27382,37.72331],[-97.27382,37.72501],[-97.26986,37.72528],[-97.26927,37.72299],[-97.26636,37.723],[-97.26594,37.72462],[-97.2623,37.72496],[-97.26229,37.723],[-97.25921,37.723],[-97.25832,37.71941],[-97.25935,37.71855],[-97.26229,37.71855],[-97.26228,37.71048]]]}},{"type":"Feature","properties":{"zip":"67218"},"geometry":{"type":"Polygon","coordinates":[[[-97.29896,37.6863],[-97.26216,37.68649],[-97.26216,37.67739],[-97.26105,37.67668],[-97.26214,37.67576],[-97.26213,37.67011],[-97.25792,37.67012],[-97.25719,37.6689],[-97.25843,37.66787],[-97.26213,37.66829],[-97.26138,37.66247],[-97.26214,37.66248],[-97.26213,37.6588],[-97.25641,37.66041],[-97.27175,37.65009],[-97.27382,37.6501],[-97.27698,37.64819],[-97.27713,37.65011],[-97.29472,37.65004],[-97.29518,37.64866],[-97.29875,37.65001],[-97.29881,37.65914],[-97.29689,37.65915],[-97.29881,37.66154],[-97.29883,37.66638],[-97.29424,37.66642],[-97.29426,37.66824],[-97.29884,37.66822],[-97.29896,37.6863]]]}}]}